[{"OBJECT_NAME":"STARLINK-32472","OBJECT_ID":"2024-202B","EPOCH":"2026-03-09T10:37:42.467232","MEAN_MOTION":15.27577811,"ECCENTRICITY":0.00016961,"INCLINATION":43.0028,"RA_OF_ASC_NODE":228.6805,"ARG_OF_PERICENTER":270.1435,"MEAN_ANOMALY":89.9223,"EPHEMERIS_TYPE":0,"CLASSIFICATION_TYPE":"U","NORAD_CAT_ID":61846,"ELEMENT_SET_NO":999,"REV_AT_EPOCH":7541,"BSTAR":1.564658e-6,"MEAN_MOTION_DOT":-2.19e-6,"MEAN_MOTION_DDOT":0},{"OBJECT_NAME":"FLOCK 4G-22","OBJECT_ID":"2025-009AN","EPOCH":"2026-03-09T22:51:40.689792","MEAN_MOTION":15.2720903,"ECCENTRICITY":8.959e-5,"INCLINATION":97.4046,"RA_OF_ASC_NODE":151.5884,"ARG_OF_PERICENTER":284.1963,"MEAN_ANOMALY":75.9176,"EPHEMERIS_TYPE":0,"CLASSIFICATION_TYPE":"U","NORAD_CAT_ID":62645,"ELEMENT_SET_NO":999,"REV_AT_EPOCH":6376,"BSTAR":0.00049035383,"MEAN_MOTION_DOT":0.00013013,"MEAN_MOTION_DDOT":0}]
